STARLINK-37362          
1 68974U 26099Z   26132.83335648  .00017617  00000+0  92622-4 0  9990
2 68974  53.1589 331.5490 0000293  86.3897 338.6510 15.80869694  2988
