{
  "norad_id": 68974,
  "name": "STARLINK-37362",
  "history": [
    {
      "epoch": "2026-05-12T20:00:01.999008Z",
      "apogee_km": 328.17714736960716,
      "perigee_km": 327.7828276907403,
      "latitude_deg": 46.66194236393678,
      "longitude_deg": -146.92105868408274,
      "height_km": 332.83809408412543,
      "semi_major_axis_km": 6706.116987530173,
      "eccentricity": 2.94e-05,
      "inclination_deg": 53.1589,
      "raan_deg": 331.549,
      "arg_perigee_deg": 86.3897,
      "mean_anomaly_deg": 338.651,
      "mean_motion_rev_day": 15.80869694
    }
  ]
}